{"type":"FeatureCollection","features":[{"type":"Feature","geometry":{"type":"Point","coordinates":[-3.21829,55.94573]},"properties":{"kind":"station","name":"Haymarket","minutes":4,"per_hour":12}},{"type":"Feature","geometry":{"type":"Point","coordinates":[-3.30757,55.92751]},"properties":{"kind":"station","name":"Edinburgh Park","minutes":10,"per_hour":4}},{"type":"Feature","geometry":{"type":"Point","coordinates":[-3.29947,55.9361]},"properties":{"kind":"station","name":"South Gyle","minutes":10,"per_hour":2}},{"type":"Feature","geometry":{"type":"Point","coordinates":[-3.32027,55.94076]},"properties":{"kind":"station","name":"Edinburgh Gateway","minutes":12,"per_hour":3}},{"type":"Feature","geometry":{"type":"Point","coordinates":[-3.38164,55.98643]},"properties":{"kind":"station","name":"Dalmeny","minutes":16,"per_hour":2}},{"type":"Feature","geometry":{"type":"Point","coordinates":[-3.24336,55.92662]},"properties":{"kind":"station","name":"Slateford","minutes":9,"per_hour":1}},{"type":"Feature","geometry":{"type":"Point","coordinates":[-3.26538,55.91864]},"properties":{"kind":"station","name":"Kingsknowe","minutes":12,"per_hour":1}},{"type":"Feature","geometry":{"type":"Point","coordinates":[-3.28499,55.91433]},"properties":{"kind":"station","name":"Wester Hailes","minutes":14,"per_hour":1}},{"type":"Feature","geometry":{"type":"Point","coordinates":[-3.31883,55.90063]},"properties":{"kind":"station","name":"Curriehill","minutes":14,"per_hour":2}},{"type":"Feature","geometry":{"type":"Point","coordinates":[-3.43245,55.88867]},"properties":{"kind":"station","name":"Kirknewton","minutes":20,"per_hour":2}},{"type":"Feature","geometry":{"type":"Point","coordinates":[-3.1008,55.94264]},"properties":{"kind":"station","name":"Brunstane","minutes":8,"per_hour":2}},{"type":"Feature","geometry":{"type":"Point","coordinates":[-3.09078,55.93307]},"properties":{"kind":"station","name":"Newcraighall","minutes":11,"per_hour":2}},{"type":"Feature","geometry":{"type":"Point","coordinates":[-3.0803,55.9174]},"properties":{"kind":"station","name":"Shawfair","minutes":14,"per_hour":2}},{"type":"Feature","geometry":{"type":"Point","coordinates":[-3.0803,55.8827]},"properties":{"kind":"station","name":"Eskbank","minutes":19,"per_hour":2}},{"type":"Feature","geometry":{"type":"Point","coordinates":[-3.07329,55.93378]},"properties":{"kind":"station","name":"Musselburgh","minutes":7,"per_hour":3}},{"type":"Feature","geometry":{"type":"Point","coordinates":[-3.0149,55.94014]},"properties":{"kind":"station","name":"Wallyford","minutes":10,"per_hour":3}},{"type":"Feature","geometry":{"type":"Point","coordinates":[-3.5957,55.9765]},"properties":{"kind":"station","name":"Linlithgow","minutes":20,"per_hour":4}},{"type":"Feature","geometry":{"type":"Point","coordinates":[-3.5025,55.9195]},"properties":{"kind":"station","name":"Uphall","minutes":24,"per_hour":2}},{"type":"Feature","geometry":{"type":"Point","coordinates":[-3.544,55.901]},"properties":{"kind":"station","name":"Livingston North","minutes":27,"per_hour":2}},{"type":"Feature","geometry":{"type":"Point","coordinates":[-3.5015,55.8718]},"properties":{"kind":"station","name":"Livingston South","minutes":25,"per_hour":1}},{"type":"Feature","geometry":{"type":"Point","coordinates":[-3.0694,55.8667]},"properties":{"kind":"station","name":"Newtongrange","minutes":22,"per_hour":2}},{"type":"Feature","geometry":{"type":"Point","coordinates":[-3.0473,55.8397]},"properties":{"kind":"station","name":"Gorebridge","minutes":26,"per_hour":2}},{"type":"Feature","geometry":{"type":"Point","coordinates":[-2.9745,55.9531]},"properties":{"kind":"station","name":"Prestonpans","minutes":13,"per_hour":1}},{"type":"Feature","geometry":{"type":"Point","coordinates":[-2.8883,55.9765]},"properties":{"kind":"station","name":"Longniddry","minutes":17,"per_hour":1}},{"type":"Feature","geometry":{"type":"Point","coordinates":[-2.786,56.005]},"properties":{"kind":"station","name":"Drem","minutes":21,"per_hour":1}},{"type":"Feature","geometry":{"type":"Point","coordinates":[-2.7309,56.0571]},"properties":{"kind":"station","name":"North Berwick","minutes":33,"per_hour":1}},{"type":"Feature","geometry":{"type":"Point","coordinates":[-2.5134,55.9981]},"properties":{"kind":"station","name":"Dunbar","minutes":22,"per_hour":1}},{"type":"Feature","geometry":{"type":"Point","coordinates":[-3.3946,56.0125]},"properties":{"kind":"station","name":"North Queensferry","minutes":17,"per_hour":2}},{"type":"Feature","geometry":{"type":"Point","coordinates":[-3.3963,56.0348]},"properties":{"kind":"station","name":"Inverkeithing","minutes":19,"per_hour":4}},{"type":"Feature","geometry":{"type":"Point","coordinates":[-3.3677,56.0419]},"properties":{"kind":"station","name":"Dalgety Bay","minutes":23,"per_hour":2}},{"type":"Feature","geometry":{"type":"Point","coordinates":[-3.3006,56.0546]},"properties":{"kind":"station","name":"Aberdour","minutes":28,"per_hour":2}},{"type":"Feature","geometry":{"type":"Point","coordinates":[-3.2335,56.0571]},"properties":{"kind":"station","name":"Burntisland","minutes":32,"per_hour":2}}]}