{"type":"FeatureCollection","features":[{"type":"Feature","properties":{"kind":"line","name":"Edinburgh Trams"},"geometry":{"type":"MultiLineString","coordinates":[[[-3.36038,55.94764],[-3.3598,55.94692]],[[-3.36038,55.94764],[-3.3598,55.94692]],[[-3.36038,55.94764],[-3.3598,55.94692]],[[-3.35991,55.9469],[-3.36049,55.94761],[-3.35991,55.9469]],[[-3.35787,55.9443],[-3.35991,55.9469]],[[-3.35787,55.9443],[-3.35991,55.9469]],[[-3.3598,55.94692],[-3.35936,55.94634]],[[-3.3598,55.94692],[-3.35936,55.94634]],[[-3.3598,55.94692],[-3.35936,55.94634]],[[-3.35936,55.94634],[-3.35807,55.9446],[-3.35745,55.94386]],[[-3.35936,55.94634],[-3.35807,55.9446],[-3.35745,55.94386]],[[-3.35936,55.94634],[-3.35807,55.9446],[-3.35745,55.94386]],[[-3.35576,55.94062],[-3.35617,55.94178],[-3.35649,55.94251],[-3.35682,55.94303],[-3.35787,55.9443]],[[-3.35576,55.94062],[-3.35617,55.94178],[-3.35649,55.94251],[-3.35682,55.94303],[-3.35787,55.9443]],[[-3.35745,55.94386],[-3.35678,55.94304],[-3.35644,55.94252],[-3.3557,55.94062]],[[-3.35745,55.94386],[-3.35678,55.94304],[-3.35644,55.94252],[-3.3557,55.94062]],[[-3.35745,55.94386],[-3.35678,55.94304],[-3.35644,55.94252],[-3.3557,55.94062]],[[-3.35444,55.93996],[-3.35486,55.93991],[-3.35536,55.94002],[-3.35559,55.94021],[-3.35576,55.94062]],[[-3.35444,55.93996],[-3.35486,55.93991],[-3.35536,55.94002],[-3.35559,55.94021],[-3.35576,55.94062]],[[-3.3557,55.94062],[-3.35557,55.94027],[-3.35531,55.94006],[-3.35485,55.93995],[-3.35446,55.93999]],[[-3.3557,55.94062],[-3.35557,55.94027],[-3.35531,55.94006],[-3.35485,55.93995],[-3.35446,55.93999]],[[-3.3557,55.94062],[-3.35557,55.94027],[-3.35531,55.94006],[-3.35485,55.93995],[-3.35446,55.93999]],[[-3.35446,55.93999],[-3.35249,55.94041],[-3.35106,55.94053],[-3.33597,55.94049]],[[-3.35446,55.93999],[-3.35249,55.94041],[-3.35106,55.94053],[-3.33597,55.94049]],[[-3.35446,55.93999],[-3.35249,55.94041],[-3.35106,55.94053],[-3.33597,55.94049]],[[-3.33597,55.94047],[-3.35106,55.9405],[-3.35202,55.94044],[-3.35266,55.94035],[-3.35444,55.93996]],[[-3.33597,55.94047],[-3.35106,55.9405],[-3.35202,55.94044],[-3.35266,55.94035],[-3.35444,55.93996]],[[-3.33556,55.94046],[-3.33597,55.94047]],[[-3.33556,55.94046],[-3.33597,55.94047]],[[-3.33597,55.94049],[-3.33556,55.94049]],[[-3.33597,55.94049],[-3.33556,55.94049]],[[-3.33597,55.94049],[-3.33556,55.94049]],[[-3.33507,55.94046],[-3.33556,55.94046]],[[-3.33507,55.94046],[-3.33556,55.94046]],[[-3.33556,55.94049],[-3.33507,55.94049]],[[-3.33556,55.94049],[-3.33507,55.94049]],[[-3.33556,55.94049],[-3.33507,55.94049]],[[-3.33359,55.93798],[-3.33384,55.93825],[-3.33399,55.93855],[-3.33398,55.93887],[-3.33387,55.93924],[-3.33393,55.93954],[-3.33443,55.94029],[-3.33463,55.94039],[-3.33507,55.94046]],[[-3.33359,55.93798],[-3.33384,55.93825],[-3.33399,55.93855],[-3.33398,55.93887],[-3.33387,55.93924],[-3.33393,55.93954],[-3.33443,55.94029],[-3.33463,55.94039],[-3.33507,55.94046]],[[-3.33507,55.94049],[-3.33461,55.94041],[-3.33439,55.94031],[-3.33387,55.93955],[-3.33382,55.93942],[-3.33382,55.93924],[-3.33392,55.93886],[-3.33394,55.93855],[-3.33375,55.93821],[-3.33352,55.93798]],[[-3.33507,55.94049],[-3.33461,55.94041],[-3.33439,55.94031],[-3.33387,55.93955],[-3.33382,55.93942],[-3.33382,55.93924],[-3.33392,55.93886],[-3.33394,55.93855],[-3.33375,55.93821],[-3.33352,55.93798]],[[-3.33507,55.94049],[-3.33461,55.94041],[-3.33439,55.94031],[-3.33387,55.93955],[-3.33382,55.93942],[-3.33382,55.93924],[-3.33392,55.93886],[-3.33394,55.93855],[-3.33375,55.93821],[-3.33352,55.93798]],[[-3.33272,55.93789],[-3.33319,55.93783],[-3.33336,55.93786],[-3.33359,55.93798]],[[-3.33272,55.93789],[-3.33319,55.93783],[-3.33336,55.93786],[-3.33359,55.93798]],[[-3.33352,55.93798],[-3.3333,55.93788],[-3.33312,55.93786],[-3.33274,55.93792]],[[-3.33352,55.93798],[-3.3333,55.93788],[-3.33312,55.93786],[-3.33274,55.93792]],[[-3.33352,55.93798],[-3.3333,55.93788],[-3.33312,55.93786],[-3.33274,55.93792]],[[-3.33274,55.93792],[-3.33193,55.93812]],[[-3.33274,55.93792],[-3.33193,55.93812]],[[-3.33274,55.93792],[-3.33193,55.93812]],[[-3.33267,55.9379],[-3.33272,55.93789]],[[-3.33267,55.9379],[-3.33272,55.93789]],[[-3.18866,55.97996],[-3.18708,55.97985],[-3.18356,55.98],[-3.18086,55.98004],[-3.18033,55.97993],[-3.17954,55.97952],[-3.17921,55.9795],[-3.17879,55.97964],[-3.17633,55.98099],[-3.17592,55.98104],[-3.17567,55.98097],[-3.17438,55.98023],[-3.17301,55.9797],[-3.17015,55.97907],[-3.16856,55.97891],[-3.16812,55.97883],[-3.16565,55.9779],[-3.16526,55.9777],[-3.16518,55.97763],[-3.16513,55.97747],[-3.16519,55.97733],[-3.16632,55.97575],[-3.16648,55.97546],[-3.16738,55.97431],[-3.16789,55.97355],[-3.16947,55.97179],[-3.17119,55.97072],[-3.1719,55.97037],[-3.17459,55.96728],[-3.17675,55.96473],[-3.17731,55.96418],[-3.17893,55.96268],[-3.18172,55.9605],[-3.18352,55.95916],[-3.1849,55.95769],[-3.18525,55.95739],[-3.1858,55.95698],[-3.18616,55.95684],[-3.18827,55.95657],[-3.19235,55.9559],[-3.19259,55.95585],[-3.19278,55.95574],[-3.19284,55.95563],[-3.19281,55.95552],[-3.19244,55.95493],[-3.19187,55.95378],[-3.19142,55.95313],[-3.19147,55.95296],[-3.19163,55.95287],[-3.20518,55.95052],[-3.20838,55.95002],[-3.21458,55.94729],[-3.21713,55.94608],[-3.21762,55.94589],[-3.21851,55.94577],[-3.22026,55.94575],[-3.22118,55.94538],[-3.22138,55.94521],[-3.22148,55.945],[-3.22178,55.94488],[-3.22446,55.94427],[-3.22887,55.9434],[-3.22943,55.94335],[-3.23085,55.94334],[-3.23309,55.94292],[-3.23487,55.9429],[-3.23531,55.94282],[-3.23691,55.94222],[-3.23784,55.94178],[-3.23878,55.9412],[-3.23938,55.94097],[-3.25969,55.93642],[-3.26251,55.93588],[-3.26537,55.93547],[-3.26574,55.93536],[-3.26611,55.93512],[-3.26626,55.93495],[-3.26673,55.93419],[-3.26699,55.93394],[-3.26729,55.93377],[-3.26768,55.93365],[-3.26996,55.93318],[-3.27157,55.93289],[-3.276,55.93223],[-3.27826,55.9318],[-3.27959,55.93153],[-3.28586,55.93003],[-3.2882,55.92958],[-3.29687,55.92844],[-3.30944,55.92702],[-3.31036,55.92696],[-3.31123,55.92711],[-3.31165,55.92726],[-3.31196,55.92746],[-3.31225,55.92774],[-3.31607,55.93369],[-3.31638,55.9344],[-3.31685,55.93663],[-3.31703,55.93707],[-3.3174,55.93748],[-3.31802,55.93787],[-3.31931,55.93854],[-3.31954,55.93872],[-3.3197,55.93896],[-3.31979,55.93957],[-3.32036,55.94032],[-3.32056,55.94044],[-3.32106,55.94051],[-3.32292,55.94027],[-3.32474,55.93962],[-3.32718,55.9391],[-3.32985,55.93862],[-3.33267,55.9379]],[[-3.33193,55.93812],[-3.32909,55.93882],[-3.32719,55.93912],[-3.32476,55.93963],[-3.3233,55.94019]],[[-3.33193,55.93812],[-3.32909,55.93882],[-3.32719,55.93912],[-3.32476,55.93963],[-3.3233,55.94019]],[[-3.3233,55.94019],[-3.32262,55.94036],[-3.32138,55.94051]],[[-3.3233,55.94019],[-3.32262,55.94036],[-3.32138,55.94051]],[[-3.32138,55.94051],[-3.32073,55.94054],[-3.32045,55.94044],[-3.3203,55.94033],[-3.31975,55.93958],[-3.31967,55.93906],[-3.31947,55.93871],[-3.31922,55.93852],[-3.31803,55.93791]],[[-3.31803,55.93791],[-3.31735,55.9375],[-3.31704,55.93718]],[[-3.31803,55.93791],[-3.31735,55.9375],[-3.31704,55.93718]],[[-3.31704,55.93718],[-3.31694,55.93703],[-3.3168,55.93663]],[[-3.31704,55.93718],[-3.31694,55.93703],[-3.3168,55.93663]],[[-3.3168,55.93663],[-3.31629,55.93441],[-3.31598,55.9337],[-3.31273,55.92856]],[[-3.3168,55.93663],[-3.31629,55.93441],[-3.31598,55.9337],[-3.31273,55.92856]],[[-3.31273,55.92856],[-3.31208,55.92762],[-3.31192,55.92748],[-3.31141,55.9272],[-3.3108,55.92704],[-3.31035,55.927],[-3.30872,55.92713]],[[-3.31273,55.92856],[-3.31208,55.92762],[-3.31192,55.92748],[-3.31141,55.9272],[-3.3108,55.92704],[-3.31035,55.927],[-3.30872,55.92713]],[[-3.30872,55.92713],[-3.29688,55.92847],[-3.29176,55.92912]],[[-3.30872,55.92713],[-3.29688,55.92847],[-3.29176,55.92912]],[[-3.29176,55.92912],[-3.29123,55.92919]],[[-3.29176,55.92912],[-3.29123,55.92919]],[[-3.29123,55.92919],[-3.28822,55.92961],[-3.28588,55.93006]],[[-3.29123,55.92919],[-3.28822,55.92961],[-3.28588,55.93006]],[[-3.28588,55.93006],[-3.28549,55.93015]],[[-3.28588,55.93006],[-3.28549,55.93015]],[[-3.28549,55.93015],[-3.27961,55.93156],[-3.27658,55.93216],[-3.2746,55.93248]],[[-3.28549,55.93015],[-3.27961,55.93156],[-3.27658,55.93216],[-3.2746,55.93248]],[[-3.2746,55.93248],[-3.27406,55.93254]],[[-3.2746,55.93248],[-3.27406,55.93254]],[[-3.27406,55.93254],[-3.26998,55.9332],[-3.2677,55.93368],[-3.26733,55.93379],[-3.26704,55.93395],[-3.26678,55.9342],[-3.26663,55.93448]],[[-3.27406,55.93254],[-3.26998,55.9332],[-3.2677,55.93368],[-3.26733,55.93379],[-3.26704,55.93395],[-3.26678,55.9342],[-3.26663,55.93448]],[[-3.26663,55.93448],[-3.26634,55.93494]],[[-3.26663,55.93448],[-3.26634,55.93494]],[[-3.26634,55.93494],[-3.26592,55.93529],[-3.26532,55.93551],[-3.26252,55.93592],[-3.25971,55.93645],[-3.2508,55.93845]],[[-3.26634,55.93494],[-3.26592,55.93529],[-3.26532,55.93551],[-3.26252,55.93592],[-3.25971,55.93645],[-3.2508,55.93845]],[[-3.2508,55.93845],[-3.2504,55.93854]],[[-3.2508,55.93845],[-3.2504,55.93854]],[[-3.2504,55.93854],[-3.24581,55.93955]],[[-3.2504,55.93854],[-3.24581,55.93955]],[[-3.24581,55.93955],[-3.24515,55.9397]],[[-3.24581,55.93955],[-3.24515,55.9397]],[[-3.24515,55.9397],[-3.24271,55.94025]],[[-3.24515,55.9397],[-3.24271,55.94025]],[[-3.24271,55.94025],[-3.24252,55.94029]],[[-3.24271,55.94025],[-3.24252,55.94029]],[[-3.24252,55.94029],[-3.23942,55.941],[-3.23878,55.94125]],[[-3.24252,55.94029],[-3.23942,55.941],[-3.23878,55.94125]],[[-3.23878,55.94125],[-3.2384,55.94147]],[[-3.23878,55.94125],[-3.2384,55.94147]],[[-3.2384,55.94147],[-3.23788,55.94181],[-3.23698,55.94221],[-3.23548,55.9428],[-3.23517,55.94289],[-3.23309,55.94295],[-3.23111,55.94334],[-3.22993,55.94338]],[[-3.2384,55.94147],[-3.23788,55.94181],[-3.23698,55.94221],[-3.23548,55.9428],[-3.23517,55.94289],[-3.23309,55.94295],[-3.23111,55.94334],[-3.22993,55.94338]],[[-3.22993,55.94338],[-3.22947,55.94338]],[[-3.22993,55.94338],[-3.22947,55.94338]],[[-3.22947,55.94338],[-3.22883,55.94344],[-3.22593,55.94399],[-3.22241,55.94477]],[[-3.22947,55.94338],[-3.22883,55.94344],[-3.22593,55.94399],[-3.22241,55.94477]],[[-3.22241,55.94477],[-3.22161,55.94498],[-3.22139,55.94529],[-3.22122,55.94542],[-3.22034,55.94577],[-3.22007,55.94581],[-3.21845,55.94581],[-3.2175,55.94598],[-3.21385,55.94764]],[[-3.22241,55.94477],[-3.22161,55.94498],[-3.22139,55.94529],[-3.22122,55.94542],[-3.22034,55.94577],[-3.22007,55.94581],[-3.21845,55.94581],[-3.2175,55.94598],[-3.21385,55.94764]],[[-3.21385,55.94764],[-3.21242,55.94833],[-3.20851,55.95003],[-3.20801,55.95016]],[[-3.21385,55.94764],[-3.21242,55.94833],[-3.20851,55.95003],[-3.20801,55.95016]],[[-3.20801,55.95016],[-3.2072,55.95022],[-3.20583,55.95046]],[[-3.20801,55.95016],[-3.2072,55.95022],[-3.20583,55.95046]],[[-3.20583,55.95046],[-3.19226,55.9528]],[[-3.20583,55.95046],[-3.19226,55.9528]],[[-3.19286,55.95546],[-3.19292,55.95565],[-3.19279,55.95582],[-3.19254,55.95591],[-3.19181,55.95602]],[[-3.19286,55.95546],[-3.19292,55.95565],[-3.19279,55.95582],[-3.19254,55.95591],[-3.19181,55.95602]],[[-3.19182,55.95359],[-3.19205,55.95392],[-3.19286,55.95546]],[[-3.19182,55.95359],[-3.19205,55.95392],[-3.19286,55.95546]],[[-3.19226,55.9528],[-3.19176,55.95288],[-3.19152,55.95304],[-3.1915,55.95312],[-3.19156,55.95327],[-3.19182,55.95359]],[[-3.19226,55.9528],[-3.19176,55.95288],[-3.19152,55.95304],[-3.1915,55.95312],[-3.19156,55.95327],[-3.19182,55.95359]],[[-3.19181,55.95602],[-3.1896,55.95639]],[[-3.19181,55.95602],[-3.1896,55.95639]],[[-3.18867,55.97992],[-3.18944,55.98001],[-3.19008,55.98021]],[[-3.1896,55.95639],[-3.18831,55.95661]],[[-3.1896,55.95639],[-3.18831,55.95661]],[[-3.18677,55.97981],[-3.18867,55.97992]],[[-3.18677,55.97981],[-3.18867,55.97992]],[[-3.18831,55.95661],[-3.18629,55.95688]],[[-3.18831,55.95661],[-3.18629,55.95688]],[[-3.18609,55.97984],[-3.18677,55.97981]],[[-3.18609,55.97984],[-3.18677,55.97981]],[[-3.18629,55.95688],[-3.18601,55.95695],[-3.18577,55.95706]],[[-3.18629,55.95688],[-3.18601,55.95695],[-3.18577,55.95706]],[[-3.18151,55.98],[-3.18609,55.97984]],[[-3.18151,55.98],[-3.18609,55.97984]],[[-3.18577,55.95706],[-3.18511,55.95759],[-3.18462,55.95815],[-3.18357,55.95918],[-3.18112,55.96108]],[[-3.18577,55.95706],[-3.18511,55.95759],[-3.18462,55.95815],[-3.18357,55.95918],[-3.18112,55.96108]],[[-3.18054,55.97995],[-3.18151,55.98]],[[-3.18054,55.97995],[-3.18151,55.98]],[[-3.18112,55.96108],[-3.18076,55.96135]],[[-3.18112,55.96108],[-3.18076,55.96135]],[[-3.18076,55.96135],[-3.17875,55.96292]],[[-3.18076,55.96135],[-3.17875,55.96292]],[[-3.17999,55.9797],[-3.18054,55.97995]],[[-3.17999,55.9797],[-3.18054,55.97995]],[[-3.17884,55.97953],[-3.17917,55.97941],[-3.17942,55.97941],[-3.17963,55.97948],[-3.17999,55.9797]],[[-3.17884,55.97953],[-3.17917,55.97941],[-3.17942,55.97941],[-3.17963,55.97948],[-3.17999,55.9797]],[[-3.17818,55.97988],[-3.17884,55.97953]],[[-3.17818,55.97988],[-3.17884,55.97953]],[[-3.17875,55.96292],[-3.17786,55.96373]],[[-3.17875,55.96292],[-3.17786,55.96373]],[[-3.17652,55.98078],[-3.17818,55.97988]],[[-3.17652,55.98078],[-3.17818,55.97988]],[[-3.17786,55.96373],[-3.17686,55.96471]],[[-3.17786,55.96373],[-3.17686,55.96471]],[[-3.17686,55.96471],[-3.1761,55.96559]],[[-3.17686,55.96471],[-3.1761,55.96559]],[[-3.17555,55.98083],[-3.17576,55.98094],[-3.17603,55.98098],[-3.17622,55.98094],[-3.17652,55.98078]],[[-3.17555,55.98083],[-3.17576,55.98094],[-3.17603,55.98098],[-3.17622,55.98094],[-3.17652,55.98078]],[[-3.1761,55.96559],[-3.17551,55.9663]],[[-3.1761,55.96559],[-3.17551,55.9663]],[[-3.17463,55.98031],[-3.17555,55.98083]],[[-3.17463,55.98031],[-3.17555,55.98083]],[[-3.17551,55.9663],[-3.17447,55.9675]],[[-3.17551,55.9663],[-3.17447,55.9675]],[[-3.17225,55.97947],[-3.17305,55.97967],[-3.17416,55.98008],[-3.17463,55.98031]],[[-3.17225,55.97947],[-3.17305,55.97967],[-3.17416,55.98008],[-3.17463,55.98031]],[[-3.17447,55.9675],[-3.1719,55.97043]],[[-3.17447,55.9675],[-3.1719,55.97043]],[[-3.1719,55.97941],[-3.17225,55.97947]],[[-3.1719,55.97941],[-3.17225,55.97947]],[[-3.1719,55.97043],[-3.17131,55.97071]],[[-3.1719,55.97043],[-3.17131,55.97071]],[[-3.17096,55.9792],[-3.1719,55.97941]],[[-3.17096,55.9792],[-3.1719,55.97941]],[[-3.17131,55.97071],[-3.17071,55.97107]],[[-3.17131,55.97071],[-3.17071,55.97107]],[[-3.16982,55.97897],[-3.17096,55.9792]],[[-3.16982,55.97897],[-3.17096,55.9792]],[[-3.17071,55.97107],[-3.16953,55.97181],[-3.16783,55.97374]],[[-3.17071,55.97107],[-3.16953,55.97181],[-3.16783,55.97374]],[[-3.16749,55.97853],[-3.16841,55.97885],[-3.16982,55.97897]],[[-3.16749,55.97853],[-3.16841,55.97885],[-3.16982,55.97897]],[[-3.16783,55.97374],[-3.16734,55.97449],[-3.16659,55.97548]],[[-3.16783,55.97374],[-3.16734,55.97449],[-3.16659,55.97548]],[[-3.16672,55.97821],[-3.16749,55.97853]],[[-3.16672,55.97821],[-3.16749,55.97853]],[[-3.16536,55.97722],[-3.16522,55.97747],[-3.16527,55.97762],[-3.16536,55.97769],[-3.16672,55.97821]],[[-3.16536,55.97722],[-3.16522,55.97747],[-3.16527,55.97762],[-3.16536,55.97769],[-3.16672,55.97821]],[[-3.16659,55.97548],[-3.16536,55.97722]],[[-3.16659,55.97548],[-3.16536,55.97722]]]}},{"type":"Feature","properties":{"kind":"stop","name":"Saughton"},"geometry":{"type":"Point","coordinates":[-3.2752,55.93239]}},{"type":"Feature","properties":{"kind":"stop","name":"Edinburgh Airport"},"geometry":{"type":"Point","coordinates":[-3.36049,55.94761]}},{"type":"Feature","properties":{"kind":"stop","name":"Balgreen"},"geometry":{"type":"Point","coordinates":[-3.25186,55.93823]}},{"type":"Feature","properties":{"kind":"stop","name":"Princes Street"},"geometry":{"type":"Point","coordinates":[-3.19746,55.95189]}},{"type":"Feature","properties":{"kind":"stop","name":"Edinburgh Park Central"},"geometry":{"type":"Point","coordinates":[-3.31472,55.93156]}},{"type":"Feature","properties":{"kind":"stop","name":"Gyle Centre"},"geometry":{"type":"Point","coordinates":[-3.31873,55.93823]}},{"type":"Feature","properties":{"kind":"stop","name":"Edinburgh Airport"},"geometry":{"type":"Point","coordinates":[-3.36038,55.94764]}},{"type":"Feature","properties":{"kind":"stop","name":"Edinburgh Park Central"},"geometry":{"type":"Point","coordinates":[-3.31435,55.93113]}},{"type":"Feature","properties":{"kind":"stop","name":"Gogarburn"},"geometry":{"type":"Point","coordinates":[-3.33193,55.93812]}},{"type":"Feature","properties":{"kind":"stop","name":"Gyle Centre"},"geometry":{"type":"Point","coordinates":[-3.31803,55.93791]}},{"type":"Feature","properties":{"kind":"stop","name":"Saughton"},"geometry":{"type":"Point","coordinates":[-3.276,55.93223]}},{"type":"Feature","properties":{"kind":"stop","name":"Ingliston Park & Ride"},"geometry":{"type":"Point","coordinates":[-3.35439,55.93997]}},{"type":"Feature","properties":{"kind":"stop","name":"Bankhead"},"geometry":{"type":"Point","coordinates":[-3.29419,55.92877]}},{"type":"Feature","properties":{"kind":"stop","name":"Murrayfield Stadium"},"geometry":{"type":"Point","coordinates":[-3.23755,55.94191]}},{"type":"Feature","properties":{"kind":"stop","name":"St Andrew Square"},"geometry":{"type":"Point","coordinates":[-3.19246,55.95471]}},{"type":"Feature","properties":{"kind":"stop","name":"Murrayfield Stadium"},"geometry":{"type":"Point","coordinates":[-3.23704,55.94219]}},{"type":"Feature","properties":{"kind":"stop","name":"Haymarket"},"geometry":{"type":"Point","coordinates":[-3.21999,55.94577]}},{"type":"Feature","properties":{"kind":"stop","name":"Haymarket"},"geometry":{"type":"Point","coordinates":[-3.21924,55.9458]}},{"type":"Feature","properties":{"kind":"stop","name":"Balgreen"},"geometry":{"type":"Point","coordinates":[-3.25257,55.93803]}},{"type":"Feature","properties":{"kind":"stop","name":"Bankhead"},"geometry":{"type":"Point","coordinates":[-3.29337,55.92892]}},{"type":"Feature","properties":{"kind":"stop","name":"Edinburgh Park Station"},"geometry":{"type":"Point","coordinates":[-3.30739,55.92726]}},{"type":"Feature","properties":{"kind":"stop","name":"Edinburgh Park Station"},"geometry":{"type":"Point","coordinates":[-3.3066,55.92739]}},{"type":"Feature","properties":{"kind":"stop","name":"Gogarburn"},"geometry":{"type":"Point","coordinates":[-3.33267,55.9379]}},{"type":"Feature","properties":{"kind":"stop","name":"Ingliston Park & Ride"},"geometry":{"type":"Point","coordinates":[-3.35362,55.94018]}},{"type":"Feature","properties":{"kind":"stop","name":"Princes Street"},"geometry":{"type":"Point","coordinates":[-3.19818,55.95171]}},{"type":"Feature","properties":{"kind":"stop","name":"St Andrew Square"},"geometry":{"type":"Point","coordinates":[-3.19216,55.95436]}},{"type":"Feature","properties":{"kind":"stop","name":"West End"},"geometry":{"type":"Point","coordinates":[-3.2112,55.94887]}},{"type":"Feature","properties":{"kind":"stop","name":"Edinburgh Gateway"},"geometry":{"type":"Point","coordinates":[-3.32138,55.94051]}},{"type":"Feature","properties":{"kind":"stop","name":"Picardy Place"},"geometry":{"type":"Point","coordinates":[-3.18715,55.9567]}},{"type":"Feature","properties":{"kind":"stop","name":"Picardy Place"},"geometry":{"type":"Point","coordinates":[-3.18642,55.95687]}},{"type":"Feature","properties":{"kind":"stop","name":"Balfour Street"},"geometry":{"type":"Point","coordinates":[-3.17631,55.96526]}},{"type":"Feature","properties":{"kind":"stop","name":"Balfour Street"},"geometry":{"type":"Point","coordinates":[-3.17618,55.9655]}},{"type":"Feature","properties":{"kind":"stop","name":"The Shore"},"geometry":{"type":"Point","coordinates":[-3.16682,55.97515]}},{"type":"Feature","properties":{"kind":"stop","name":"The Shore"},"geometry":{"type":"Point","coordinates":[-3.16698,55.97481]}},{"type":"Feature","properties":{"kind":"stop","name":"Foot of the Walk"},"geometry":{"type":"Point","coordinates":[-3.17119,55.97072]}},{"type":"Feature","properties":{"kind":"stop","name":"Foot of the Walk"},"geometry":{"type":"Point","coordinates":[-3.17078,55.97103]}},{"type":"Feature","properties":{"kind":"stop","name":"Port of Leith"},"geometry":{"type":"Point","coordinates":[-3.16663,55.97818]}},{"type":"Feature","properties":{"kind":"stop","name":"Port of Leith"},"geometry":{"type":"Point","coordinates":[-3.16591,55.97799]}},{"type":"Feature","properties":{"kind":"stop","name":"Ocean Terminal"},"geometry":{"type":"Point","coordinates":[-3.1781,55.97993]}},{"type":"Feature","properties":{"kind":"stop","name":"Ocean Terminal"},"geometry":{"type":"Point","coordinates":[-3.17729,55.98046]}},{"type":"Feature","properties":{"kind":"stop","name":"Newhaven"},"geometry":{"type":"Point","coordinates":[-3.18867,55.97992]}},{"type":"Feature","properties":{"kind":"stop","name":"Newhaven"},"geometry":{"type":"Point","coordinates":[-3.18866,55.97996]}},{"type":"Feature","properties":{"kind":"stop","name":"McDonald Road"},"geometry":{"type":"Point","coordinates":[-3.18163,55.96057]}},{"type":"Feature","properties":{"kind":"stop","name":"McDonald Road"},"geometry":{"type":"Point","coordinates":[-3.1814,55.96087]}},{"type":"Feature","properties":{"kind":"stop","name":"West End"},"geometry":{"type":"Point","coordinates":[-3.21209,55.94839]}},{"type":"Feature","properties":{"kind":"stop","name":"Edinburgh Gateway"},"geometry":{"type":"Point","coordinates":[-3.32213,55.94039]}}]}