{"type":"FeatureCollection","features":[{"type":"Feature","properties":{"name":"North-South line: Granton to Haymarket via Roseburn path (option)","segment":"north","status":"proposed"},"geometry":{"type":"LineString","coordinates":[[-3.2268,55.9822],[-3.2318,55.976],[-3.2325,55.9695],[-3.234,55.964],[-3.2352,55.9588],[-3.2362,55.9535],[-3.2372,55.9478],[-3.233,55.9462],[-3.2185,55.9458]]}},{"type":"Feature","properties":{"name":"North-South line: Granton to West End via Orchard Brae and Dean Bridge (option)","segment":"north","status":"proposed"},"geometry":{"type":"LineString","coordinates":[[-3.2268,55.9822],[-3.2318,55.976],[-3.2325,55.9695],[-3.2292,55.964],[-3.2255,55.959],[-3.2228,55.9558],[-3.2175,55.9535],[-3.2135,55.952],[-3.2092,55.95]]}},{"type":"Feature","properties":{"name":"North-South line: city centre to BioQuarter via the Bridges and Cameron Toll","segment":"south","status":"proposed"},"geometry":{"type":"LineString","coordinates":[[-3.1935,55.9542],[-3.1878,55.952],[-3.1862,55.9478],[-3.1848,55.944],[-3.1812,55.9385],[-3.175,55.9335],[-3.169,55.9298],[-3.156,55.9255],[-3.142,55.9225],[-3.1355,55.9212]]}},{"type":"Feature","properties":{"name":"Possible extension: BioQuarter to Shawfair / Sheriffhall","segment":"extension","status":"proposed"},"geometry":{"type":"LineString","coordinates":[[-3.1355,55.9212],[-3.118,55.914],[-3.1,55.906],[-3.09,55.899]]}}]}